{
  "type": "FeatureCollection",
  "features": [
    {
      "type": "Feature",
      "properties": {
        "norad_id": 44334,
        "name": "EUTELSAT 7C",
        "group": "eutelsat",
        "lat": 0.026407528568418867,
        "lon": -40.08940591744177,
        "alt_km": 35780.72533777027,
        "timestamp": "2025-12-22T14:45:57.056407+00:00",
        "meta_object_name": "EUTELSAT 7C",
        "meta_object_id": "2019-034B",
        "meta_epoch": "2025-12-22T03:54:38.524896",
        "meta_mean_motion": 1.00270429,
        "meta_eccentricity": 0.00031022,
        "meta_inclination": 0.0729,
        "meta_ra_of_asc_node": 180.3118,
        "meta_arg_of_pericenter": 75.1349,
        "meta_mean_anomaly": 261.1679,
        "meta_ephemeris_type": 0,
        "meta_classification_type": "U",
        "meta_norad_cat_id": 44334,
        "meta_element_set_no": 999,
        "meta_rev_at_epoch": 506,
        "meta_bstar": 0,
        "meta_mean_motion_dot": 7e-07,
        "meta_mean_motion_ddot": 0,
        "tle_line1": "1 44334U 19034B   25356.16294589  .00000070  00000+0  00000+0 0  9995",
        "tle_line2": "2 44334   0.0729 180.3118 0003102  75.1349 261.1679  1.00270429  5063"
      },
      "geometry": {
        "type": "Point",
        "coordinates": [
          -40.08940591744177,
          0.026407528568418867
        ]
      }
    },
    {
      "type": "Feature",
      "properties": {
        "norad_id": 44624,
        "name": "EUTELSAT 5 WEST B",
        "group": "eutelsat",
        "lat": -0.052481873636782556,
        "lon": -52.07766489289094,
        "alt_km": 35775.968240733164,
        "timestamp": "2025-12-22T14:45:57.056419+00:00",
        "meta_object_name": "EUTELSAT 5 WEST B",
        "meta_object_id": "2019-067A",
        "meta_epoch": "2025-12-22T06:17:32.611200",
        "meta_mean_motion": 1.00271351,
        "meta_eccentricity": 0.00030366,
        "meta_inclination": 0.0656,
        "meta_ra_of_asc_node": 338.4706,
        "meta_arg_of_pericenter": 292.1222,
        "meta_mean_anomaly": 269.8665,
        "meta_ephemeris_type": 0,
        "meta_classification_type": "U",
        "meta_norad_cat_id": 44624,
        "meta_element_set_no": 999,
        "meta_rev_at_epoch": 2266,
        "meta_bstar": 0,
        "meta_mean_motion_dot": -2e-07,
        "meta_mean_motion_ddot": 0,
        "tle_line1": "1 44624U 19067A   25356.26218300 -.00000020  00000+0  00000+0 0  9997",
        "tle_line2": "2 44624   0.0656 338.4706 0003036 292.1222 269.8665  1.00271351 22660"
      },
      "geometry": {
        "type": "Point",
        "coordinates": [
          -52.07766489289094,
          -0.052481873636782556
        ]
      }
    },
    {
      "type": "Feature",
      "properties": {
        "norad_id": 45027,
        "name": "EUTELSAT KONNECT",
        "group": "eutelsat",
        "lat": -0.06564025914061693,
        "lon": -39.88873387300753,
        "alt_km": 35782.03126071851,
        "timestamp": "2025-12-22T14:45:57.056431+00:00",
        "meta_object_name": "EUTELSAT KONNECT",
        "meta_object_id": "2020-005B",
        "meta_epoch": "2025-12-22T03:54:38.524896",
        "meta_mean_motion": 1.00271218,
        "meta_eccentricity": 0.00013186,
        "meta_inclination": 0.0707,
        "meta_ra_of_asc_node": 94.5088,
        "meta_arg_of_pericenter": 184.2033,
        "meta_mean_anomaly": 238.124,
        "meta_ephemeris_type": 0,
        "meta_classification_type": "U",
        "meta_norad_cat_id": 45027,
        "meta_element_set_no": 999,
        "meta_rev_at_epoch": 2256,
        "meta_bstar": 0,
        "meta_mean_motion_dot": 7.1e-07,
        "meta_mean_motion_ddot": 0,
        "tle_line1": "1 45027U 20005B   25356.16294589  .00000071  00000+0  00000+0 0  9996",
        "tle_line2": "2 45027   0.0707  94.5088 0001318 184.2033 238.1240  1.00271218 22569"
      },
      "geometry": {
        "type": "Point",
        "coordinates": [
          -39.88873387300753,
          -0.06564025914061693
        ]
      }
    },
    {
      "type": "Feature",
      "properties": {
        "norad_id": 49056,
        "name": "EUTELSAT QUANTUM",
        "group": "eutelsat",
        "lat": -0.00047112893035706663,
        "lon": 0.6452858531430808,
        "alt_km": 35783.32681937638,
        "timestamp": "2025-12-22T14:45:57.056442+00:00",
        "meta_object_name": "EUTELSAT QUANTUM",
        "meta_object_id": "2021-069B",
        "meta_epoch": "2025-12-22T03:07:13.338336",
        "meta_mean_motion": 1.00271936,
        "meta_eccentricity": 0.00034622,
        "meta_inclination": 0.0106,
        "meta_ra_of_asc_node": 358.3448,
        "meta_arg_of_pericenter": 282.7947,
        "meta_mean_anomaly": 264.313,
        "meta_ephemeris_type": 0,
        "meta_classification_type": "U",
        "meta_norad_cat_id": 49056,
        "meta_element_set_no": 999,
        "meta_rev_at_epoch": 1615,
        "meta_bstar": 0,
        "meta_mean_motion_dot": 1.48e-06,
        "meta_mean_motion_ddot": 0,
        "tle_line1": "1 49056U 21069B   25356.13001549  .00000148  00000+0  00000+0 0  9997",
        "tle_line2": "2 49056   0.0106 358.3448 0003462 282.7947 264.3130  1.00271936 16153"
      },
      "geometry": {
        "type": "Point",
        "coordinates": [
          0.6452858531430808,
          -0.00047112893035706663
        ]
      }
    },
    {
      "type": "Feature",
      "properties": {
        "norad_id": 53765,
        "name": "EUTELSAT KONNECT VHTS",
        "group": "eutelsat",
        "lat": -0.0538876331513092,
        "lon": -44.33406444116261,
        "alt_km": 35784.78202886609,
        "timestamp": "2025-12-22T14:45:57.056454+00:00",
        "meta_object_name": "EUTELSAT KONNECT VHTS",
        "meta_object_id": "2022-110A",
        "meta_epoch": "2025-12-21T13:12:40.176000",
        "meta_mean_motion": 1.00270894,
        "meta_eccentricity": 0.0002618,
        "meta_inclination": 0.0618,
        "meta_ra_of_asc_node": 99.3714,
        "meta_arg_of_pericenter": 133.7511,
        "meta_mean_anomaly": 58.1537,
        "meta_ephemeris_type": 0,
        "meta_classification_type": "U",
        "meta_norad_cat_id": 53765,
        "meta_element_set_no": 999,
        "meta_rev_at_epoch": 504,
        "meta_bstar": 0,
        "meta_mean_motion_dot": 4e-07,
        "meta_mean_motion_ddot": 0,
        "tle_line1": "1 53765U 22110A   25355.55046500  .00000040  00000+0  00000+0 0  9999",
        "tle_line2": "2 53765   0.0618  99.3714 0002618 133.7511  58.1537  1.00270894  5043"
      },
      "geometry": {
        "type": "Point",
        "coordinates": [
          -44.33406444116261,
          -0.0538876331513092
        ]
      }
    },
    {
      "type": "Feature",
      "properties": {
        "norad_id": 54048,
        "name": "EUTELSAT HOTBIRD 13F",
        "group": "eutelsat",
        "lat": 0.013105587780213486,
        "lon": -34.12008007411295,
        "alt_km": 35778.485943215244,
        "timestamp": "2025-12-22T14:45:57.056467+00:00",
        "meta_object_name": "EUTELSAT HOTBIRD 13F",
        "meta_object_id": "2022-134A",
        "meta_epoch": "2025-12-21T21:49:07.084128",
        "meta_mean_motion": 1.00271763,
        "meta_eccentricity": 0.00022808,
        "meta_inclination": 0.0525,
        "meta_ra_of_asc_node": 292.4073,
        "meta_arg_of_pericenter": 71.4737,
        "meta_mean_anomaly": 67.1177,
        "meta_ephemeris_type": 0,
        "meta_classification_type": "U",
        "meta_norad_cat_id": 54048,
        "meta_element_set_no": 999,
        "meta_rev_at_epoch": 1160,
        "meta_bstar": 0,
        "meta_mean_motion_dot": 1.09e-06,
        "meta_mean_motion_ddot": 0,
        "tle_line1": "1 54048U 22134A   25355.90910977  .00000109  00000+0  00000+0 0  9993",
        "tle_line2": "2 54048   0.0525 292.4073 0002280  71.4737  67.1177  1.00271763 11607"
      },
      "geometry": {
        "type": "Point",
        "coordinates": [
          -34.12008007411295,
          0.013105587780213486
        ]
      }
    },
    {
      "type": "Feature",
      "properties": {
        "norad_id": 54225,
        "name": "EUTELSAT HOTBIRD 13G",
        "group": "eutelsat",
        "lat": 0.022733097945659295,
        "lon": -34.10482215873124,
        "alt_km": 35792.51673793942,
        "timestamp": "2025-12-22T14:45:57.056479+00:00",
        "meta_object_name": "EUTELSAT HOTBIRD 13G",
        "meta_object_id": "2022-146A",
        "meta_epoch": "2025-12-21T21:49:07.084128",
        "meta_mean_motion": 1.0026968,
        "meta_eccentricity": 0.00016162,
        "meta_inclination": 0.0526,
        "meta_ra_of_asc_node": 226.0316,
        "meta_arg_of_pericenter": 309.1853,
        "meta_mean_anomaly": 255.7772,
        "meta_ephemeris_type": 0,
        "meta_classification_type": "U",
        "meta_norad_cat_id": 54225,
        "meta_element_set_no": 999,
        "meta_rev_at_epoch": 568,
        "meta_bstar": 0,
        "meta_mean_motion_dot": 1.09e-06,
        "meta_mean_motion_ddot": 0,
        "tle_line1": "1 54225U 22146A   25355.90910977  .00000109  00000+0  00000+0 0  9993",
        "tle_line2": "2 54225   0.0526 226.0316 0001616 309.1853 255.7772  1.00269680  5682"
      },
      "geometry": {
        "type": "Point",
        "coordinates": [
          -34.10482215873124,
          0.022733097945659295
        ]
      }
    }
  ]
}